CCSDS_OMM_VERS,COMMENT,CREATION_DATE,ORIGINATOR,OBJECT_NAME,OBJECT_ID,CENTER_NAME,REF_FRAME,TIME_SYSTEM,MEAN_ELEMENT_THEORY,EPOCH,MEAN_MOTION,ECCENTRICITY,INCLINATION,RA_OF_ASC_NODE,ARG_OF_PERICENTER,MEAN_ANOMALY,EPHEMERIS_TYPE,CLASSIFICATION_TYPE,NORAD_CAT_ID,ELEMENT_SET_NO,REV_AT_EPOCH,BSTAR,MEAN_MOTION_DOT,MEAN_MOTION_DDOT,SEMIMAJOR_AXIS,PERIOD,APOAPSIS,PERIAPSIS,OBJECT_TYPE,RCS_SIZE,COUNTRY_CODE,LAUNCH_DATE,SITE,DECAY_DATE,FILE,GP_ID,TLE_LINE0,TLE_LINE1,TLE_LINE2,NORAD_KEY
3.0,GENERATED VIA SPACE-TRACK.ORG API,2026-05-06T14:36:32,18 SPCS,STAR ONE C2,2008-018B,EARTH,TEME,UTC,SGP4,2026-05-06T11:07:14.215872,1.00270233,0.0003193,1.1345,82.7937,336.5685,266.7781,0,U,32768,999,6623,0.00000000000000,-0.00000268,0.0000000000000,42165.167,1436.119,35800.495,35773.569,PAYLOAD,LARGE,BRAZ,2008-04-18,FRGUI,,5176979,322292394,0 STAR ONE C2,1 32768U 08018B   26126.46335898 -.00000268  00000-0  00000+0 0  9992,2 32768   1.1345  82.7937 0003193 336.5685 266.7781  1.00270233 66232,32768
3.0,GENERATED VIA SPACE-TRACK.ORG API,2026-05-06T10:08:52,18 SPCS,INTELSAT 901,2001-024A,EARTH,TEME,UTC,SGP4,2026-05-06T04:46:17.397408,0.988191,0.0005892,1.1485,85.1605,345.2216,264.7814,0,U,26824,999,2250,0.00000000000000,0.00000020,0.0000000000000,42576.953,1457.208,36223.904,36173.731,PAYLOAD,LARGE,ITSO,2001-06-09,FRGUI,,5176958,322266151,0 INTELSAT 901,1 26824U 01024A   26126.19881247  .00000020  00000-0  00000-0 0  9998,2 26824   1.1485  85.1605 0005892 345.2216 264.7814  0.98819100 22502,26824
3.0,GENERATED VIA SPACE-TRACK.ORG API,2026-05-06T14:46:56,18 SPCS,NSS 9,2009-008A,EARTH,TEME,UTC,SGP4,2026-05-06T12:59:38.670720,1.00271995,0.0002415,1.1541,83.0066,313.8626,205.515,0,U,33749,999,6310,0.00000000000000,0.00000080,0.0000000000000,42164.673,1436.094,35796.721,35776.355,PAYLOAD,LARGE,SES,2009-02-12,FRGUI,,5177024,322293285,0 NSS 9,1 33749U 09008A   26126.54141980  .00000080  00000-0  00000+0 0  9999,2 33749   1.1541  83.0066 0002415 313.8626 205.5150  1.00271995 63106,33749
3.0,GENERATED VIA SPACE-TRACK.ORG API,2026-05-06T14:46:56,18 SPCS,YAMAL 402,2012-070A,EARTH,TEME,UTC,SGP4,2026-05-06T09:58:43.479264,1.00272575,0.0004047,1.1577,84.641,318.7402,25.48,0,U,39022,999,4897,0.00000000000000,0.00000094,0.0000000000000,42164.51,1436.086,35803.439,35769.312,PAYLOAD,LARGE,CIS,2012-12-08,TTMTR,,5177135,322296499,0 YAMAL 402,1 39022U 12070A   26126.41578101  .00000094  00000-0  00000+0 0  9992,2 39022   1.1577  84.6410 0004047 318.7402  25.4800  1.00272575 48978,39022
3.0,GENERATED VIA SPACE-TRACK.ORG API,2026-05-06T14:46:56,18 SPCS,GOES 15,2010-008A,EARTH,TEME,UTC,SGP4,2026-05-06T13:14:48.700320,1.00273833,0.0004674,1.166,83.5922,25.6656,17.1564,0,U,36411,999,5922,0.00000000000000,0.00000030,0.0000000000000,42164.158,1436.068,35805.73,35766.315,PAYLOAD,LARGE,US,2010-03-04,AFETR,,5177101,322296574,0 GOES 15,1 36411U 10008A   26126.55195255  .00000030  00000-0  00000+0 0  9990,2 36411   1.1660  83.5922 0004674  25.6656  17.1564  1.00273833 59220,36411
3.0,GENERATED VIA SPACE-TRACK.ORG API,2026-05-06T15:06:46,18 SPCS,ASTRA 1L,2007-016A,EARTH,TEME,UTC,SGP4,2026-05-06T09:36:00.658368,1.0027263,0.0005175,1.2138,81.8558,339.1752,282.7597,0,U,31306,999,4456,0.00000000000000,-0.00000176,0.0000000000000,42164.495,1436.085,35808.18,35764.54,PAYLOAD,LARGE,SES,2007-05-04,FRGUI,,5177764,322311817,0 ASTRA 1L,1 31306U 07016A   26126.40000762 -.00000176  00000-0  00000+0 0  9997,2 31306   1.2138  81.8558 0005175 339.1752 282.7597  1.00272630 44563,31306
3.0,GENERATED VIA SPACE-TRACK.ORG API,2026-05-06T14:46:56,18 SPCS,SES 3,2011-035A,EARTH,TEME,UTC,SGP4,2026-05-06T10:56:22.758144,1.00272933,0.0003197,1.2188,83.5006,324.7253,237.1852,0,U,37748,999,5417,0.00000000000000,-0.00000094,0.0000000000000,42164.41,1436.08,35799.755,35772.795,PAYLOAD,LARGE,US,2011-07-15,TTMTR,,5177118,322296787,0 SES 3,1 37748U 11035A   26126.45581896 -.00000094  00000-0  00000+0 0  9995,2 37748   1.2188  83.5006 0003197 324.7253 237.1852  1.00272933 54171,37748
3.0,GENERATED VIA SPACE-TRACK.ORG API,2026-05-06T14:46:56,18 SPCS,NATO 2B,1971-009A,EARTH,TEME,UTC,SGP4,2026-05-06T12:38:25.444032,1.00272146,0.000227,1.2501,248.3604,227.2031,193.5624,0,U,4902,999,11822,0.00000000000000,-0.00000081,0.0000000000000,42164.631,1436.092,35796.067,35776.924,PAYLOAD,LARGE,NATO,1971-02-03,AFETR,,5177116,322296256,0 NATO 2B,1  4902U 71009A   26126.52668338 -.00000081  00000-0  00000+0 0  9999,2  4902   1.2501 248.3604 0002270 227.2031 193.5624  1.00272146118228,4902
3.0,GENERATED VIA SPACE-TRACK.ORG API,2026-05-06T15:06:46,18 SPCS,HORIZONS 1 (GALAXY 13),2003-044A,EARTH,TEME,UTC,SGP4,2026-05-06T13:03:21.795264,1.00270932,0.0002119,1.3126,84.3451,316.2029,229.6843,0,U,27954,999,4615,0.00000000000000,0.00000141,0.0000000000000,42164.971,1436.109,35795.771,35777.901,PAYLOAD,LARGE,US,2003-10-01,SEAL,,5177726,322310824,0 HORIZONS 1 (GALAXY 13),1 27954U 03044A   26126.54400226  .00000141  00000-0  00000+0 0  9993,2 27954   1.3126  84.3451 0002119 316.2029 229.6843  1.00270932 46157,27954
3.0,GENERATED VIA SPACE-TRACK.ORG API,2026-05-06T14:46:56,18 SPCS,CHINASAT 2A,2012-028A,EARTH,TEME,UTC,SGP4,2026-05-06T13:59:02.245632,1.0027327,0.0002841,1.347,84.3951,31.1223,56.9337,0,U,38352,999,5088,0.00000000000000,-0.00000285,0.0000000000000,42164.316,1436.076,35798.16,35774.202,PAYLOAD,LARGE,PRC,2012-05-26,XSC,,5177127,322296899,0 CHINASAT 2A,1 38352U 12028A   26126.58266488 -.00000285  00000-0  00000+0 0  9993,2 38352   1.3470  84.3951 0002841  31.1223  56.9337  1.00273270 50881,38352
3.0,GENERATED VIA SPACE-TRACK.ORG API,2026-05-06T14:46:56,18 SPCS,ASTRA 3B,2010-021A,EARTH,TEME,UTC,SGP4,2026-05-06T11:32:26.799072,1.00273638,0.0003981,1.363,84.021,330.0939,6.8406,0,U,36581,999,5844,0.00000000000000,0.00000145,0.0000000000000,42164.213,1436.07,35802.863,35769.292,PAYLOAD,LARGE,SES,2010-05-21,FRGUI,,5177103,322296096,0 ASTRA 3B,1 36581U 10021A   26126.48086573  .00000145  00000-0  00000+0 0  9994,2 36581   1.3630  84.0210 0003981 330.0939   6.8406  1.00273638 58446,36581
3.0,GENERATED VIA SPACE-TRACK.ORG API,2026-05-06T14:56:52,18 SPCS,CHINASAT 4A,2024-151A,EARTH,TEME,UTC,SGP4,2026-05-06T11:59:24.213120,1.00272064,9.62e-05,1.4221,271.3278,159.0011,92.1102,0,U,60606,999,633,0.00000000000000,-0.00000355,0.0000000000000,42164.654,1436.093,35790.575,35782.463,PAYLOAD,LARGE,PRC,2024-08-22,WSC,,5177623,322308772,0 CHINASAT 4A,1 60606U 24151A   26126.49958580 -.00000355  00000-0  00000+0 0  9999,2 60606   1.4221 271.3278 0000962 159.0011  92.1102  1.00272064  6333,60606
3.0,GENERATED VIA SPACE-TRACK.ORG API,2026-05-06T14:46:56,18 SPCS,AL YAH 3,2018-012A,EARTH,TEME,UTC,SGP4,2026-05-06T09:37:15.536928,1.00271635,0.0004573,1.444,83.5776,327.5017,297.4131,0,U,43174,999,3042,0.00000000000000,-0.00000147,0.0000000000000,42164.774,1436.099,35805.921,35767.357,PAYLOAD,LARGE,UAE,2018-01-25,FRGUI,,5177192,322298271,0 AL YAH 3,1 43174U 18012A   26126.40087427 -.00000147  00000-0  00000+0 0  9992,2 43174   1.4440  83.5776 0004573 327.5017 297.4131  1.00271635 30425,43174
3.0,GENERATED VIA SPACE-TRACK.ORG API,2026-05-06T14:46:56,18 SPCS,INTELSAT 33E,2016-053B,EARTH,TEME,UTC,SGP4,2026-05-06T13:14:48.683040,1.00165681,0.002304,1.4674,84.7686,191.4714,209.4761,0,U,41748,999,3583,0.00000000000000,0.00000055,0.0000000000000,42194.503,1437.618,35913.584,35719.152,PAYLOAD,LARGE,ITSO,2016-08-24,FRGUI,,5177177,322298558,0 INTELSAT 33E,1 41748U 16053B   26126.55195235  .00000055  00000-0  00000+0 0  9990,2 41748   1.4674  84.7686 0023040 191.4714 209.4761  1.00165681 35839,41748
3.0,GENERATED VIA SPACE-TRACK.ORG API,2026-05-06T14:46:56,18 SPCS,LES 6,1968-081D,EARTH,TEME,UTC,SGP4,2026-05-06T13:00:26.678016,1.00308091,0.0009522,1.4682,38.4007,303.9751,293.2734,0,U,3431,999,12036,0.00000000000000,0.00000123,0.0000000000000,42154.557,1435.577,35816.562,35736.283,PAYLOAD,LARGE,US,1968-09-26,AFETR,,5177099,322296041,0 LES 6,1  3431U 68081D   26126.54197544  .00000123  00000-0  00000+0 0  9995,2  3431   1.4682  38.4007 0009522 303.9751 293.2734  1.00308091120366,3431
3.0,GENERATED VIA SPACE-TRACK.ORG API,2026-05-06T14:46:56,18 SPCS,MOLNIYA 1-S,1974-060A,EARTH,TEME,UTC,SGP4,2026-05-06T11:55:17.109120,1.00306089,0.0007938,1.4804,252.2503,280.8851,333.5858,0,U,7392,999,13375,0.00000000000000,-0.00000320,0.0000000000000,42155.118,1435.606,35810.446,35743.52,PAYLOAD,LARGE,CIS,1974-07-29,TTMTR,,5177153,322297252,0 MOLNIYA 1-S,1  7392U 74060A   26126.49672580 -.00000320  00000-0  00000+0 0  9991,2  7392   1.4804 252.2503 0007938 280.8851 333.5858  1.00306089133759,7392
3.0,GENERATED VIA SPACE-TRACK.ORG API,2026-05-06T14:46:56,18 SPCS,TIANLIAN 1-O5,2021-063A,EARTH,TEME,UTC,SGP4,2026-05-06T06:22:27.092640,1.00271345,0.0002154,1.4859,81.0106,279.9732,335.5397,0,U,49011,999,1765,0.00000000000000,0.00000116,0.0000000000000,42164.855,1436.103,35795.803,35777.638,PAYLOAD,,PRC,2021-07-06,XSC,,5177286,322300448,0 TIANLIAN 1-O5,1 49011U 21063A   26126.26559135  .00000116  00000-0  00000+0 0  9997,2 49011   1.4859  81.0106 0002154 279.9732 335.5397  1.00271345 17658,49011
3.0,GENERATED VIA SPACE-TRACK.ORG API,2026-05-06T15:06:46,18 SPCS,BSAT-3A,2007-036B,EARTH,TEME,UTC,SGP4,2026-05-06T06:28:48.983232,0.99140356,0.0002318,1.5502,89.159,95.432,175.9553,0,U,32019,999,5005,0.00000000000000,0.00000061,0.0000000000000,42484.925,1452.486,36116.638,36096.942,PAYLOAD,LARGE,JPN,2007-08-14,FRGUI,,5177781,322312042,0 BSAT-3A,1 32019U 07036B   26126.27001138  .00000061  00000-0  00000+0 0  9996,2 32019   1.5502  89.1590 0002318  95.4320 175.9553  0.99140356 50051,32019
3.0,GENERATED VIA SPACE-TRACK.ORG API,2026-05-06T14:46:56,18 SPCS,BEIDOU 2 G8,2019-027A,EARTH,TEME,UTC,SGP4,2026-05-06T12:06:39.849696,1.00275877,0.0011202,1.553,74.4097,281.508,194.5764,0,U,44231,999,2566,0.00000000000000,-0.00000239,0.0000000000000,42163.585,1436.038,35832.682,35738.218,PAYLOAD,LARGE,PRC,2019-05-17,XSC,,5177213,322299037,0 BEIDOU 2 G8,1 44231U 19027A   26126.50462789 -.00000239  00000-0  00000+0 0  9995,2 44231   1.5530  74.4097 0011202 281.5080 194.5764  1.00275877 25663,44231
